{
    "links": {
        "self": "http://www.neowsapp.com/rest/v1/neo/3837960?api_key=iIulBulltgU6a56xZRHN4H3l9WmuAYTsLGpBGhQ2"
    },
    "id": "3837960",
    "neo_reference_id": "3837960",
    "name": "(2019 BH1)",
    "designation": "2019 BH1",
    "nasa_jpl_url": "http://ssd.jpl.nasa.gov/sbdb.cgi?sstr=3837960",
    "absolute_magnitude_h": 24.0,
    "estimated_diameter": {
        "kilometers": {
            "estimated_diameter_min": 0.0421264611,
            "estimated_diameter_max": 0.0941976306
        },
        "meters": {
            "estimated_diameter_min": 42.1264610556,
            "estimated_diameter_max": 94.1976305719
        },
        "miles": {
            "estimated_diameter_min": 0.0261761612,
            "estimated_diameter_max": 0.0585316759
        },
        "feet": {
            "estimated_diameter_min": 138.2101784897,
            "estimated_diameter_max": 309.0473542854
        }
    },
    "is_potentially_hazardous_asteroid": false,
    "close_approach_data": [
        {
            "close_approach_date": "2019-02-03",
            "close_approach_date_full": "2019-Feb-03 02:21",
            "epoch_date_close_approach": 1549160460000,
            "relative_velocity": {
                "kilometers_per_second": "21.0640649389",
                "kilometers_per_hour": "75830.6337798942",
                "miles_per_hour": "47118.2068617348"
            },
            "miss_distance": {
                "astronomical": "0.0285405633",
                "lunar": "11.1022791237",
                "kilometers": "4269607.478280171",
                "miles": "2653011.0652455198"
            },
            "orbiting_body": "Earth"
        },
        {
            "close_approach_date": "2088-01-15",
            "close_approach_date_full": "2088-Jan-15 02:56",
            "epoch_date_close_approach": 3724973760000,
            "relative_velocity": {
                "kilometers_per_second": "32.9856707113",
                "kilometers_per_hour": "118748.4145605457",
                "miles_per_hour": "73785.6468140235"
            },
            "miss_distance": {
                "astronomical": "0.3587887781",
                "lunar": "139.5688346809",
                "kilometers": "53674036.983662647",
                "miles": "33351500.0520406486"
            },
            "orbiting_body": "Earth"
        },
        {
            "close_approach_date": "2090-10-09",
            "close_approach_date_full": "2090-Oct-09 12:57",
            "epoch_date_close_approach": 3811237020000,
            "relative_velocity": {
                "kilometers_per_second": "21.6556266529",
                "kilometers_per_hour": "77960.2559503788",
                "miles_per_hour": "48441.471259834"
            },
            "miss_distance": {
                "astronomical": "0.0799483825",
                "lunar": "31.0999207925",
                "kilometers": "11960107.731945275",
                "miles": "7431666.333683795"
            },
            "orbiting_body": "Mars"
        },
        {
            "close_approach_date": "2128-08-16",
            "close_approach_date_full": "2128-Aug-16 23:01",
            "epoch_date_close_approach": 5005753260000,
            "relative_velocity": {
                "kilometers_per_second": "25.2628401912",
                "kilometers_per_hour": "90946.2246884474",
                "miles_per_hour": "56510.4472237745"
            },
            "miss_distance": {
                "astronomical": "0.1087465788",
                "lunar": "42.3024191532",
                "kilometers": "16268256.558267156",
                "miles": "10108625.8820965128"
            },
            "orbiting_body": "Earth"
        }
    ],
    "orbital_data": {
        "orbit_id": "3",
        "orbit_determination_date": "2019-02-03 07:04:20",
        "first_observation_date": "2019-01-09",
        "last_observation_date": "2019-02-02",
        "data_arc_in_days": 24,
        "observations_used": 31,
        "orbit_uncertainty": "8",
        "minimum_orbit_intersection": ".00541508",
        "jupiter_tisserand_invariant": "3.438",
        "epoch_osculation": "2458506.5",
        "eccentricity": ".7189818862498096",
        "semi_major_axis": "2.023561738317748",
        "inclination": ".386263735931894",
        "ascending_node_longitude": "188.5161371152741",
        "orbital_period": "1051.412450695477",
        "perihelion_distance": ".5686575027591098",
        "perihelion_argument": "34.19840641720268",
        "aphelion_distance": "3.478465973876386",
        "perihelion_time": "2458563.215618948427",
        "mean_anomaly": "340.5807675114289",
        "mean_motion": ".3423965540467693",
        "equinox": "J2000",
        "orbit_class": {
            "orbit_class_type": "APO",
            "orbit_class_description": "Near-Earth asteroid orbits which cross the Earth’s orbit similar to that of 1862 Apollo",
            "orbit_class_range": "a (semi-major axis) > 1.0 AU; q (perihelion) < 1.017 AU"
        }
    },
    "is_sentry_object": false
}